NORAD_CAT_ID,OBJECT_NAME,OBJECT_TYPE,EPOCH,MEAN_MOTION,ECCENTRICITY,INCLINATION,RA_OF_ASC_NODE,ARG_OF_PERICENTER,MEAN_ANOMALY,BSTAR,MEAN_MOTION_DOT,MEAN_MOTION_DDOT,TLE_LINE0,TLE_LINE1,TLE_LINE2,SEMIMAJOR_AXIS,PERIOD,APOGEE,PERIGEE,DECAYED
53836.0,STARLINK-4778,PAYLOAD,2024-08-14 19:20:18,15.08869731,0.0001172,53.2168,341.6149,100.8423,259.2701,0.0021333,0.00033854,0.0,0 STARLINK-4778,1 53836U 22114U   24227.80576539  .00033854  00000-0  21333-2 0  9992,2 53836  53.2168 341.6149 0001172 100.8423 259.2701 15.08869731106639,6917.79,95.436,540.465,538.844,0.0
53836.0,STARLINK-4778,PAYLOAD,2024-08-15 14:24:54,15.0888405,0.0001162,53.217,338.0467,98.2665,261.8459,0.0021876,0.00034742,0.0,0 STARLINK-4778,1 53836U 22114U   24228.60063574  .00034742  00000-0  21876-2 0  9990,2 53836  53.2170 338.0467 0001162  98.2665 261.8459 15.08884050106755,6917.746,95.435,540.415,538.807,0.0
53836.0,STARLINK-4778,PAYLOAD,2024-08-15 23:57:12,15.08902761,5.05e-05,53.2175,336.2642,99.096,261.0089,0.0020423,0.00032421,0.0,0 STARLINK-4778,1 53836U 22114U   24228.99806263  .00032421  00000-0  20423-2 0  9991,2 53836  53.2175 336.2642 0000505  99.0960 261.0089 15.08902761106270,6917.689,95.434,539.903,539.204,0.0
53836.0,STARLINK-4778,PAYLOAD,2024-08-17 20:28:00,15.08864826,5.04e-05,53.2241,327.9363,106.6316,253.4731,0.0038913,0.00062231,0.0,0 STARLINK-4778,1 53836U 22114U   24230.85278911  .00062231  00000-0  38913-2 0  9997,2 53836  53.2241 327.9363 0000504 106.6316 253.4731 15.08864826106559,6917.805,95.436,540.018,539.321,0.0
53836.0,STARLINK-4778,PAYLOAD,2024-08-17 22:03:24,15.08777983,2.64e-05,53.2273,327.6396,240.711,119.3856,-0.0015059,-0.00024132,0.0,0 STARLINK-4778,1 53836U 22114U   24230.91903863 -.00024132  00000-0 -15059-2 0  9991,2 53836  53.2273 327.6396 0000264 240.7110 119.3856 15.08777983106568,6918.07,95.441,540.118,539.752,0.0
53836.0,STARLINK-4778,PAYLOAD,2024-08-18 06:00:20,15.08828243,6.15e-05,53.2274,326.1543,253.5575,106.535,0.0011988,0.00018836,0.0,0 STARLINK-4778,1 53836U 22114U   24231.25023923  .00018836  00000-0  11988-2 0  9998,2 53836  53.2274 326.1543 0000615 253.5575 106.5350 15.08828243107153,6917.916,95.438,540.207,539.356,0.0
53836.0,STARLINK-4778,PAYLOAD,2024-08-18 12:21:52,15.08876532,0.0001502,53.218,324.9668,113.8533,246.2617,0.002947,0.00046973,0.0,0 STARLINK-4778,1 53836U 22114U   24231.51519389  .00046973  00000-0  29470-2 0  9991,2 53836  53.2180 324.9668 0001502 113.8533 246.2617 15.08876532106657,6917.769,95.435,540.673,538.595,0.0
53836.0,STARLINK-4778,PAYLOAD,2024-08-18 13:57:15,15.08855803,0.0001438,53.2171,324.6678,117.1312,242.9826,0.0014622,0.0002307,0.0,0 STARLINK-4778,1 53836U 22114U   24231.58143506  .00023070  00000-0  14622-2 0  9998,2 53836  53.2171 324.6678 0001438 117.1312 242.9826 15.08855803106669,6917.832,95.437,540.692,538.702,0.0
53836.0,STARLINK-4778,PAYLOAD,2024-08-19 05:51:07,15.08856813,0.0001803,53.2171,321.6936,111.9649,248.1535,0.0015372,0.00024273,0.0,0 STARLINK-4778,1 53836U 22114U   24232.24383638  .00024273  00000-0  15372-2 0  9993,2 53836  53.2171 321.6936 0001803 111.9649 248.1535 15.08856813106762,6917.829,95.436,540.941,538.447,0.0
53836.0,STARLINK-4778,PAYLOAD,2024-08-19 12:12:40,15.08843143,0.000154,53.2172,320.5038,105.4649,254.6513,0.0013565,0.00021368,0.0,0 STARLINK-4778,1 53836U 22114U   24232.50879970  .00021368  00000-0  13565-2 0  9995,2 53836  53.2172 320.5038 0001540 105.4649 254.6513 15.08843143106805,6917.871,95.437,540.801,538.67,0.0
53836.0,STARLINK-4778,PAYLOAD,2024-08-19 13:48:03,15.08833754,0.0001516,53.2171,320.2066,100.7948,259.3215,0.00086123,0.00013443,0.0,0 STARLINK-4778,1 53836U 22114U   24232.57504137  .00013443  00000-0  86123-3 0  9998,2 53836  53.2171 320.2066 0001516 100.7948 259.3215 15.08833754107354,6917.899,95.438,540.813,538.716,0.0
53836.0,STARLINK-4778,PAYLOAD,2024-08-20 12:03:27,15.08845007,0.0001833,53.2165,316.0428,106.4847,253.6347,0.00066238,0.00010271,0.0,0 STARLINK-4778,1 53836U 22114U   24233.50240384  .00010271  00000-0  66238-3 0  9994,2 53836  53.2165 316.0428 0001833 106.4847 253.6347 15.08845007106957,6917.865,95.437,540.998,538.462,0.0
53836.0,STARLINK-4778,PAYLOAD,2024-08-21 05:32:42,15.08844361,0.0001778,53.2154,312.7748,86.5664,273.5532,0.00040152,6.109e-05,0.0,0 STARLINK-4778,1 53836U 22114U   24234.23104584  .00006109  00000-0  40152-3 0  9998,2 53836  53.2154 312.7748 0001778  86.5664 273.5532 15.08844361107068,6917.867,95.437,540.962,538.502,0.0
53836.0,STARLINK-4778,PAYLOAD,2024-08-21 10:18:51,15.0886418,0.000166,53.2164,311.8802,100.1889,259.929,0.00090541,0.0001416,0.0,0 STARLINK-4778,1 53836U 22114U   24234.42976100  .00014160  00000-0  90541-3 0  9993,2 53836  53.2164 311.8802 0001660 100.1889 259.9290 15.08864180107095,6917.806,95.436,540.82,538.523,0.0
